H1 CPF  1  DLR 2022 03 31 10  5902 technosat            
H2  1704205 6203    42829 2022 03 31 00 00 00 2022 04 07 00 00 00    60 1 1  0 0 0
H9
10 0 59674  50400.000000  0       -709597.502      -4244940.657       5488235.628
10 0 59674  50460.000000  0       -761188.857      -3873084.890       5749694.446
10 0 59674  50520.000000  0       -806259.754      -3484555.506       5986853.090
10 0 59674  50580.000000  0       -844483.433      -3081044.749       6198715.610
10 0 59674  50640.000000  0       -875576.910      -2664309.126       6384392.646
10 0 59674  50700.000000  0       -899302.641      -2236161.778       6543104.879
10 0 59674  50760.000000  0       -915469.929      -1798464.624       6674186.109
10 0 59674  50820.000000  0       -923936.081      -1353120.307       6777085.900
10 0 59674  50880.000000  0       -924607.330       -902063.948       6851371.764
10 0 59674  50940.000000  0       -917439.493       -447254.798       6896730.840
10 0 59674  51000.000000  0       -902438.331          9332.163       6912971.116
10 0 59674  51060.000000  0       -879659.622        465714.685       6900022.229
10 0 59674  51120.000000  0       -849208.955        919911.778       6857935.779
10 0 59674  51180.000000  0       -811241.249       1369952.189       6786885.150
10 0 59674  51240.000000  0       -765960.009       1813882.857       6687164.904
10 0 59674  51300.000000  0       -713616.315       2249777.331       6559189.688
10 0 59674  51360.000000  0       -654507.539       2675744.033       6403492.671
10 0 59674  51420.000000  0       -588975.819       3089934.456       6220723.594
10 0 59674  51480.000000  0       -517406.291       3490551.251       6011646.272
10 0 59674  51540.000000  0       -440225.046       3875856.072       5777135.619
10 0 59674  51600.000000  0       -357896.849       4244177.199       5518174.260
10 0 59674  51660.000000  0       -270922.626       4593916.923       5235848.741
10 0 59674  51720.000000  0       -179836.737       4923558.772       4931345.292
10 0 59674  51780.000000  0        -85204.020       5231674.430       4605945.006
10 0 59674  51840.000000  0         12383.388       5516930.138       4261018.500
10 0 59674  51900.000000  0        112309.355       5778092.529       3898020.343
10 0 59674  51960.000000  0        213937.197       6014034.297       3518483.400
10 0 59674  52020.000000  0        316613.275       6223739.770       3124012.579
10 0 59674  52080.000000  0        419670.844       6406309.943       2716277.836
10 0 59674  52140.000000  0        522434.032       6560966.442       2297006.773
10 0 59674  52200.000000  0        624221.745       6687055.016       1867977.436
10 0 59674  52260.000000  0        724351.677       6784048.740       1431010.614
10 0 59674  52320.000000  0        822144.418       6851550.394        987961.883
10 0 59674  52380.000000  0        916927.546       6889294.265        540713.582
10 0 59674  52440.000000  0       1008039.708       6897147.396         91166.558
10 0 59674  52500.000000  0       1094834.640       6875110.079       -358768.212
10 0 59674  52560.000000  0       1176685.101       6823315.719       -807177.984
10 0 59674  52620.000000  0       1252986.723       6742030.086      -1252156.625
10 0 59674  52680.000000  0       1323161.740       6631649.931      -1691812.980
10 0 59674  52740.000000  0       1386662.587       6492700.958      -2124279.158
10 0 59674  52800.000000  0       1442975.342       6325835.174      -2547718.712
10 0 59674  52860.000000  0       1491622.973       6131827.623      -2960334.649
10 0 59674  52920.000000  0       1532168.405       5911572.522      -3360377.236
10 0 59674  52980.000000  0       1564217.353       5666078.840      -3746151.551
10 0 59674  53040.000000  0       1587420.942       5396465.347      -4116024.752
10 0 59674  53100.000000  0       1601478.061       5103955.134      -4468433.004
10 0 59674  53160.000000  0       1606137.446       4789869.707      -4801888.029
10 0 59674  53220.000000  0       1601199.484       4455622.671      -5114983.266
10 0 59674  53280.000000  0       1586517.750       4102713.097      -5406399.647
10 0 59674  53340.000000  0       1562000.273       3732718.558      -5674911.023
10 0 59674  53400.000000  0       1527610.485       3347287.757      -5919389.153
10 0 59674  53460.000000  0       1483367.861       2948132.930      -6138808.161
10 0 59674  53520.000000  0       1429348.264       2537022.061      -6332248.553
10 0 59674  53580.000000  0       1365684.011       2115770.953      -6498900.757
10 0 59674  53640.000000  0       1292563.673       1686235.200      -6638068.256
10 0 59674  53700.000000  0       1210231.573       1250301.977      -6749170.347
10 0 59674  53760.000000  0       1118986.951        809881.702      -6831744.311
10 0 59674  53820.000000  0       1019182.876        366899.735      -6885447.125
10 0 59674  53880.000000  0        911224.871        -76712.005      -6910056.758
10 0 59674  53940.000000  0        795569.229       -519023.427      -6905472.915
10 0 59674  54000.000000  0        672721.077       -958114.509      -6871717.308
10 0 59674  54060.000000  0        543232.208      -1392083.498      -6808933.512
10 0 59674  54120.000000  0        407698.660      -1819054.966      -6717386.350
10 0 59674  54180.000000  0        266758.051      -2237187.747      -6597460.952
10 0 59674  54240.000000  0        121086.618      -2644682.890      -6449661.364
10 0 59674  54300.000000  0        -28603.981      -3039791.446      -6274608.529
10 0 59674  54360.000000  0       -181570.051      -3420821.939      -6073037.776
10 0 59674  54420.000000  0       -337039.404      -3786147.595      -5845795.947
10 0 59674  54480.000000  0       -494215.124      -4134213.341      -5593838.102
10 0 59674  54540.000000  0       -652279.512      -4463542.566      -5318223.753
10 0 59674  54600.000000  0       -810398.202      -4772743.546      -5020112.647
10 0 59674  54660.000000  0       -967724.426      -5060515.532      -4700760.100
10 0 59674  54720.000000  0      -1123403.403      -5325654.453      -4361511.910
10 0 59674  54780.000000  0      -1276576.823      -5567058.207      -4003798.836
10 0 59674  54840.000000  0      -1426387.401      -5783731.492      -3629130.694
10 0 59674  54900.000000  0      -1571983.484      -5974790.180      -3239090.092
10 0 59674  54960.000000  0      -1712523.684      -6139465.192      -2835325.821
10 0 59674  55020.000000  0      -1847181.527      -6277105.888      -2419545.920
10 0 59674  55080.000000  0      -1975150.069      -6387182.909      -1993510.398
10 0 59674  55140.000000  0      -2095646.443      -6469290.444      -1559023.707
10 0 59674  55200.000000  0      -2207916.334      -6523147.920      -1117926.966
10 0 59674  55260.000000  0      -2311238.344      -6548601.077       -672089.975
10 0 59674  55320.000000  0      -2404928.227      -6545622.414       -223403.098
10 0 59674  55380.000000  0      -2488342.946      -6514311.018        226230.972
10 0 59674  55440.000000  0      -2560884.542      -6454891.784        674905.488
10 0 59674  55500.000000  0      -2622003.783      -6367714.040       1120717.964
10 0 59674  55560.000000  0      -2671203.582      -6253249.553       1561778.467
10 0 59674  55620.000000  0      -2708042.152      -6112089.945       1996217.841
10 0 59674  55680.000000  0      -2732135.873      -5944943.534       2422195.801
10 0 59674  55740.000000  0      -2743161.868      -5752631.641       2837908.878
10 0 59674  55800.000000  0      -2740860.252      -5536084.362       3241598.157
10 0 59674  55860.000000  0      -2725036.065      -5296335.860       3631556.775
10 0 59674  55920.000000  0      -2695560.881      -5034519.214       4006137.146
10 0 59674  55980.000000  0      -2652374.083      -4751860.836       4363757.893
10 0 59674  56040.000000  0      -2595483.822      -4449674.519       4702910.451
10 0 59674  56100.000000  0      -2524967.648      -4129355.124       5022165.353
10 0 59674  56160.000000  0      -2440972.746      -3792371.885       5320178.165
10 0 59674  56220.000000  0      -2343715.802      -3440261.429       5595694.916
10 0 59674  56280.000000  0      -2233482.550      -3074620.639       5847557.136
10 0 59674  56340.000000  0      -2110626.973      -2697099.309       6074706.498
10 0 59674  56400.000000  0      -1975570.161      -2309392.662       6276189.031
10 0 59674  56460.000000  0      -1828798.866      -1913233.719       6451158.930
10 0 59674  56520.000000  0      -1670863.727      -1510385.506       6598881.928
10 0 59674  56580.000000  0      -1502377.170      -1102633.153       6718738.135
10 0 59674  56640.000000  0      -1324011.053       -691775.998       6810224.348
10 0 59674  56700.000000  0      -1136494.042       -279619.795       6872955.938
10 0 59674  56760.000000  0       -940608.695        132031.060       6906668.410
10 0 59674  56820.000000  0       -737188.234        541381.349       6911218.511
10 0 59674  56880.000000  0       -527113.044        946652.784       6886584.817
10 0 59674  56940.000000  0       -311306.909       1346091.636       6832867.853
10 0 59674  57000.000000  0        -90733.021       1737976.251       6750289.765
10 0 59674  57060.000000  0        133610.281       2120624.434       6639193.498
10 0 59674  57120.000000  0        360693.944       2492400.580       6500041.468
10 0 59674  57180.000000  0        589462.828       2851722.614       6333413.868
10 0 59674  57240.000000  0        818840.516       3197068.762       6140006.506
10 0 59674  57300.000000  0       1047734.301       3526984.080       5920628.140
10 0 59674  57360.000000  0       1275040.301       3840086.678       5676197.345
10 0 59674  57420.000000  0       1499648.714       4135073.642       5407738.957
10 0 59674  57480.000000  0       1720449.188       4410726.674       5116380.074
10 0 59674  57540.000000  0       1936336.309       4665917.380       4803345.551
99
